NORAD_CAT_ID,OBJECT_NAME,OBJECT_TYPE,EPOCH,MEAN_MOTION,ECCENTRICITY,INCLINATION,RA_OF_ASC_NODE,ARG_OF_PERICENTER,MEAN_ANOMALY,BSTAR,MEAN_MOTION_DOT,MEAN_MOTION_DDOT,TLE_LINE0,TLE_LINE1,TLE_LINE2,SEMIMAJOR_AXIS,PERIOD,APOGEE,PERIGEE,DECAYED
51142.0,STARLINK-3369,PAYLOAD,2024-06-04 09:05:59,15.08844975,0.0001265,53.2159,297.1229,86.7651,273.3486,9.7222e-05,1.26e-05,0.0,0 STARLINK-3369,1 51142U 22005AQ  24156.37915936  .00001260  00000-0  97222-4 0  9998,2 51142  53.2159 297.1229 0001265  86.7651 273.3486 15.08844975132908,6917.865,95.437,540.605,538.855,0.0
51142.0,STARLINK-3369,PAYLOAD,2024-06-04 15:27:31,15.08848038,0.0001138,53.2145,295.9337,86.8967,273.2155,0.00011745,1.582e-05,0.0,0 STARLINK-3369,1 51142U 22005AQ  24156.64411577  .00001582  00000-0  11745-3 0  9992,2 51142  53.2145 295.9337 0001138  86.8967 273.2155 15.08848038131791,6917.856,95.437,540.508,538.934,0.0
51142.0,STARLINK-3369,PAYLOAD,2024-06-05 15:18:19,15.08841452,0.0002148,53.2095,291.4714,92.7293,267.3945,5.3933e-05,5.7e-06,0.0,0 STARLINK-3369,1 51142U 22005AQ  24157.63772295  .00000570  00000-0  53933-4 0  9991,2 51142  53.2095 291.4714 0002148  92.7293 267.3945 15.08841452131946,6917.876,95.437,541.227,538.255,0.0
51142.0,STARLINK-3369,PAYLOAD,2024-06-05 18:29:05,15.08836023,0.0001484,53.2137,290.8771,101.3751,258.7408,2.3387e-05,8.4e-07,0.0,0 STARLINK-3369,1 51142U 22005AQ  24157.77020497  .00000084  00000-0  23387-4 0  9996,2 51142  53.2137 290.8771 0001484 101.3751 258.7408 15.08836023133114,6917.893,95.438,540.784,538.731,0.0
51142.0,STARLINK-3369,PAYLOAD,2024-06-06 11:58:20,15.08790339,0.0001283,53.2132,287.6041,122.4839,237.6277,0.00098447,0.00015393,0.0,0 STARLINK-3369,1 51142U 22005AQ  24158.49885405  .00015393  00000-0  98447-3 0  9991,2 51142  53.2132 287.6041 0001283 122.4839 237.6277 15.08790339133222,6918.032,95.441,540.785,539.01,0.0
51142.0,STARLINK-3369,PAYLOAD,2024-06-06 15:09:05,15.08845318,0.0001389,53.2137,287.0105,98.4126,261.7024,0.00019822,2.869e-05,0.0,0 STARLINK-3369,1 51142U 22005AQ  24158.63131451  .00002869  00000-0  19822-3 0  9996,2 51142  53.2137 287.0105 0001389  98.4126 261.7024 15.08845318132090,6917.864,95.437,540.69,538.768,0.0
51142.0,STARLINK-3369,PAYLOAD,2024-06-06 18:19:51,15.08851728,0.0001484,53.2137,286.4158,101.016,259.0999,0.00010561,1.394e-05,0.0,0 STARLINK-3369,1 51142U 22005AQ  24158.76379099  .00001394  00000-0  10561-3 0  9995,2 51142  53.2137 286.4158 0001484 101.0160 259.0999 15.08851728133269,6917.845,95.437,540.736,538.683,0.0
51142.0,STARLINK-3369,PAYLOAD,2024-06-07 08:38:21,15.08828841,0.0001718,53.2125,283.7385,98.2048,261.9139,6.99e-05,8.24e-06,0.0,0 STARLINK-3369,1 51142U 22005AQ  24159.35996937  .00000824  00000-0  69900-4 0  9996,2 51142  53.2125 283.7385 0001718  98.2048 261.9139 15.08828841133358,6917.914,95.438,540.968,538.591,0.0
51142.0,STARLINK-3369,PAYLOAD,2024-06-07 14:59:53,15.08831407,0.0001322,53.2147,282.5494,95.2281,264.8862,5.5029e-05,5.88e-06,0.0,0 STARLINK-3369,1 51142U 22005AQ  24159.62492976  .00000588  00000-0  55029-4 0  9994,2 51142  53.2147 282.5494 0001322  95.2281 264.8862 15.08831407132241,6917.907,95.438,540.686,538.857,0.0
51142.0,STARLINK-3369,PAYLOAD,2024-06-08 14:50:39,15.08865928,0.0001107,53.216,278.0916,84.2304,275.8815,0.00043628,6.667e-05,0.0,0 STARLINK-3369,1 51142U 22005AQ  24160.61851107  .00006667  00000-0  43628-3 0  9995,2 51142  53.2160 278.0916 0001107  84.2304 275.8815 15.08865928132391,6917.801,95.436,540.432,538.9,0.0
51142.0,STARLINK-3369,PAYLOAD,2024-06-08 18:01:25,15.08870027,0.0001238,53.2154,277.4963,86.9231,273.1903,0.00039556,6.018e-05,0.0,0 STARLINK-3369,1 51142U 22005AQ  24160.75098662  .00006018  00000-0  39556-3 0  9994,2 51142  53.2154 277.4963 0001238  86.9231 273.1903 15.08870027133567,6917.789,95.436,540.51,538.797,0.0
51142.0,STARLINK-3369,PAYLOAD,2024-06-09 00:22:59,15.08843602,0.0002051,53.2162,276.306,79.7395,280.3828,0.00020609,2.994e-05,0.0,0 STARLINK-3369,1 51142U 22005AQ  24161.01596129  .00002994  00000-0  20609-3 0  9993,2 51142  53.2162 276.3060 0002051  79.7395 280.3828 15.08843602133607,6917.869,95.437,541.153,538.316,0.0
51142.0,STARLINK-3369,PAYLOAD,2024-06-09 11:30:42,15.08817124,0.0001373,53.2165,274.2224,58.1587,301.9539,-0.00022244,-3.824e-05,0.0,0 STARLINK-3369,1 51142U 22005AQ  24161.47965609 -.00003824  00000-0 -22244-3 0  9998,2 51142  53.2165 274.2224 0001373  58.1587 301.9539 15.08817124133675,6917.95,95.439,540.765,538.865,0.0
51142.0,STARLINK-3369,PAYLOAD,2024-06-09 14:41:27,15.08835186,0.0001332,53.2163,273.6276,54.9562,305.1555,-3.5689e-05,-8.56e-06,0.0,0 STARLINK-3369,1 51142U 22005AQ  24161.61212641 -.00000856  00000-0 -35689-4 0  9995,2 51142  53.2163 273.6276 0001332  54.9562 305.1555 15.08835186132542,6917.895,95.438,540.682,538.839,0.0
51142.0,STARLINK-3369,PAYLOAD,2024-06-10 14:32:14,15.08852945,0.0001212,53.2159,269.1701,69.6877,290.4245,0.0005357,8.251e-05,0.0,0 STARLINK-3369,1 51142U 22005AQ  24162.60572414  .00008251  00000-0  53570-3 0  9995,2 51142  53.2159 269.1701 0001212  69.6877 290.4245 15.08852945132699,6917.841,95.437,540.544,538.867,0.0
51142.0,STARLINK-3369,PAYLOAD,2024-06-11 00:04:33,15.08845352,0.0001368,53.2156,267.3861,72.9279,287.1863,0.00041627,6.344e-05,0.0,0 STARLINK-3369,1 51142U 22005AQ  24163.00316788  .00006344  00000-0  41627-3 0  9991,2 51142  53.2156 267.3861 0001368  72.9279 287.1863 15.08845352133906,6917.864,95.437,540.675,538.783,0.0
51142.0,STARLINK-3369,PAYLOAD,2024-06-11 14:23:01,15.08848565,0.0001384,53.2164,264.7109,68.4358,291.6782,0.00031464,4.724e-05,0.0,0 STARLINK-3369,1 51142U 22005AQ  24163.59932677  .00004724  00000-0  31464-3 0  9994,2 51142  53.2164 264.7109 0001384  68.4358 291.6782 15.08848565132848,6917.854,95.437,540.677,538.762,0.0
51142.0,STARLINK-3369,PAYLOAD,2024-06-11 23:55:20,15.08844488,0.0001182,53.2157,262.9278,74.1035,286.0087,0.00016582,2.352e-05,0.0,0 STARLINK-3369,1 51142U 22005AQ  24163.99676721  .00002352  00000-0  16582-3 0  9992,2 51142  53.2157 262.9278 0001182  74.1035 286.0087 15.08844488134050,6917.867,95.437,540.549,538.914,0.0
51142.0,STARLINK-3369,PAYLOAD,2024-06-12 12:38:26,15.08835489,0.000126,53.2168,260.5483,94.618,265.4956,2.7052e-05,1.43e-06,0.0,0 STARLINK-3369,1 51142U 22005AQ  24164.52669255  .00000143  00000-0  27052-4 0  9997,2 51142  53.2168 260.5483 0001260  94.6180 265.4956 15.08835489134135,6917.894,95.438,540.631,538.888,0.0
51142.0,STARLINK-3369,PAYLOAD,2024-06-12 14:13:49,15.08832477,0.0001185,53.2154,260.2519,65.1227,294.9889,-3.0712e-05,-7.76e-06,0.0,0 STARLINK-3369,1 51142U 22005AQ  24164.59293130 -.00000776  00000-0 -30712-4 0  9990,2 51142  53.2154 260.2519 0001185  65.1227 294.9889 15.08832477132996,6917.903,95.438,540.588,538.949,0.0
51142.0,STARLINK-3369,PAYLOAD,2024-06-13 12:29:13,15.08837494,0.0001092,53.2152,256.0868,86.9487,273.163,0.00024414,3.6e-05,0.0,0 STARLINK-3369,1 51142U 22005AQ  24165.52029784  .00003600  00000-0  24414-3 0  9994,2 51142  53.2152 256.0868 0001092  86.9487 273.1630 15.08837494133134,6917.888,95.438,540.508,538.998,0.0
51142.0,STARLINK-3369,PAYLOAD,2024-06-14 12:20:00,15.08857711,0.0001207,53.216,251.6262,89.1717,270.9414,0.0006184,9.572e-05,0.0,0 STARLINK-3369,1 51142U 22005AQ  24166.51389299  .00009572  00000-0  61840-3 0  9992,2 51142  53.2160 251.6262 0001207  89.1717 270.9414 15.08857711133286,6917.826,95.436,540.526,538.856,0.0
51142.0,STARLINK-3369,PAYLOAD,2024-06-14 15:30:46,15.08861561,0.0001215,53.2159,251.0313,88.8684,271.2447,0.00065689,0.00010188,0.0,0 STARLINK-3369,1 51142U 22005AQ  24166.64637083  .00010188  00000-0  65689-3 0  9993,2 51142  53.2159 251.0313 0001215  88.8684 271.2447 15.08861561133304,6917.814,95.436,540.52,538.839,0.0
51142.0,STARLINK-3369,PAYLOAD,2024-06-15 12:10:47,15.088492,0.0001246,53.2164,247.1641,93.2364,266.8771,0.0001549,2.179e-05,0.0,0 STARLINK-3369,1 51142U 22005AQ  24167.50749101  .00002179  00000-0  15490-3 0  9990,2 51142  53.2164 247.1641 0001246  93.2364 266.8771 15.08849200134586,6917.852,95.437,540.579,538.855,0.0
51142.0,STARLINK-3369,PAYLOAD,2024-06-15 21:43:05,15.08851296,0.0001256,53.2164,245.3784,91.7487,268.3649,0.00018287,2.625e-05,0.0,0 STARLINK-3369,1 51142U 22005AQ  24167.90492856  .00002625  00000-0  18287-3 0  9999,2 51142  53.2164 245.3784 0001256  91.7487 268.3649 15.08851296133492,6917.846,95.437,540.58,538.842,0.0
51142.0,STARLINK-3369,PAYLOAD,2024-06-16 12:01:33,15.08847232,0.0001323,53.217,242.7089,98.5228,261.5914,4.4725e-05,4.24e-06,0.0,0 STARLINK-3369,1 51142U 22005AQ  24168.50108783  .00000424  00000-0  44725-4 0  9991,2 51142  53.2170 242.7089 0001323  98.5228 261.5914 15.08847232133586,6917.858,95.437,540.639,538.808,0.0
51142.0,STARLINK-3369,PAYLOAD,2024-06-16 21:33:52,15.08844045,0.0001292,53.2167,240.9252,97.0065,263.1074,-5.1167e-05,-1.102e-05,0.0,0 STARLINK-3369,1 51142U 22005AQ  24168.89852900 -.00001102  00000-0 -51167-4 0  9994,2 51142  53.2167 240.9252 0001292  97.0065 263.1074 15.08844045133643,6917.868,95.437,540.627,538.839,0.0
51142.0,STARLINK-3369,PAYLOAD,2024-06-17 21:24:40,15.08835856,0.0001267,53.2176,236.4631,92.3374,267.7763,3.3539e-05,2.46e-06,0.0,0 STARLINK-3369,1 51142U 22005AQ  24169.89213931  .00000246  00000-0  33539-4 0  9999,2 51142  53.2176 236.4631 0001267  92.3374 267.7763 15.08835856133798,6917.893,95.438,540.635,538.882,0.0
51142.0,STARLINK-3369,PAYLOAD,2024-06-18 11:43:08,15.08846011,0.0001277,53.2169,233.7864,89.3948,270.7191,0.00010819,1.435e-05,0.0,0 STARLINK-3369,1 51142U 22005AQ  24170.48829144  .00001435  00000-0  10819-3 0  9991,2 51142  53.2169 233.7864 0001277  89.3948 270.7191 15.08846011135035,6917.862,95.437,540.61,538.844,0.0
51142.0,STARLINK-3369,PAYLOAD,2024-06-18 21:15:27,15.0884254,0.0001169,53.2159,232.001,83.1043,277.0082,6.4023e-05,7.31e-06,0.0,0 STARLINK-3369,1 51142U 22005AQ  24170.88573448  .00000731  00000-0  64023-4 0  9993,2 51142  53.2159 232.0010 0001169  83.1043 277.0082 15.08842540133947,6917.873,95.437,540.546,538.929,0.0
